{"type": "FeatureCollection", "features": [ {"type": "Feature", "properties": {"norad_id": 66052, "name": "HRC MONOBLOCK CAMERA", "group": "stations", "lat": 42.28789036368778, "lon": -128.19983714308276, "alt_km": 397.6453385569339, "timestamp": "2025-12-21T11:31:41.586606+00:00", "meta": {"OBJECT_NAME": "HRC MONOBLOCK CAMERA", "OBJECT_ID": "1998-067XR", "EPOCH": "2025-12-21T00:12:43.040736", "MEAN_MOTION": 15.54684783, "ECCENTRICITY": 0.0002424, "INCLINATION": 51.6308, "RA_OF_ASC_NODE": 100.2596, "ARG_OF_PERICENTER": 223.3517, "MEAN_ANOMALY": 136.7283, "EPHEMERIS_TYPE": 0, "CLASSIFICATION_TYPE": "U", "NORAD_CAT_ID": 66052, "ELEMENT_SET_NO": 999, "REV_AT_EPOCH": 1012, "BSTAR": 0.00039907, "MEAN_MOTION_DOT": 0.00026569, "MEAN_MOTION_DDOT": 0}, "tle": {"line1": "1 66052U 98067XR  25355.00883149  .00026569  00000+0  39907-3 0  9990", "line2": "2 66052  51.6308 100.2596 0002424 223.3517 136.7283 15.54684783 10127"}}, "geometry": {"type": "Point", "coordinates": [-128.19983714308276, 42.28789036368778]}}, {"type": "Feature", "properties": {"norad_id": 66174, "name": "HTV-X1", "group": "stations", "lat": -31.719880367607562, "lon": -51.48834815344893, "alt_km": 420.2579119688262, "timestamp": "2025-12-21T11:31:41.586617+00:00", "meta": {"OBJECT_NAME": "HTV-X1", "OBJECT_ID": "2025-241A", "EPOCH": "2025-12-20T16:00:06.135552", "MEAN_MOTION": 15.49686708, "ECCENTRICITY": 0.00031636, "INCLINATION": 51.6321, "RA_OF_ASC_NODE": 103.2234, "ARG_OF_PERICENTER": 277.4707, "MEAN_ANOMALY": 82.5922, "EPHEMERIS_TYPE": 0, "CLASSIFICATION_TYPE": "U", "NORAD_CAT_ID": 66174, "ELEMENT_SET_NO": 999, "REV_AT_EPOCH": 51, "BSTAR": 0.00013711052, "MEAN_MOTION_DOT": 7.293e-05, "MEAN_MOTION_DDOT": 0}, "tle": {"line1": "1 66174U 25241A   25354.66673768  .00007293  00000+0  13711-3 0  9992", "line2": "2 66174  51.6321 103.2234 0003163 277.4707  82.5922 15.49686708   514"}}, "geometry": {"type": "Point", "coordinates": [-51.48834815344893, -31.719880367607562]}}, {"type": "Feature", "properties": {"norad_id": 66515, "name": "SZ-21 MODULE", "group": "stations", "lat": -21.72458329887057, "lon": -64.10204940998119, "alt_km": 377.7221129150803, "timestamp": "2025-12-21T11:31:41.586627+00:00", "meta": {"OBJECT_NAME": "SZ-21 MODULE", "OBJECT_ID": "2025-246C", "EPOCH": "2025-12-21T02:28:16.864608", "MEAN_MOTION": 15.62895195, "ECCENTRICITY": 0.0005393, "INCLINATION": 41.4772, "RA_OF_ASC_NODE": 325.0132, "ARG_OF_PERICENTER": 304.7401, "MEAN_ANOMALY": 55.2931, "EPHEMERIS_TYPE": 0, "CLASSIFICATION_TYPE": "U", "NORAD_CAT_ID": 66515, "ELEMENT_SET_NO": 999, "REV_AT_EPOCH": 575, "BSTAR": 0.00023274, "MEAN_MOTION_DOT": 0.00021377, "MEAN_MOTION_DDOT": 0}, "tle": {"line1": "1 66515U 25246C   25355.10297297  .00021377  00000+0  23274-3 0  9999", "line2": "2 66515  41.4772 325.0132 0005393 304.7401  55.2931 15.62895195  5758"}}, "geometry": {"type": "Point", "coordinates": [-64.10204940998119, -21.72458329887057]}}, {"type": "Feature", "properties": {"norad_id": 66645, "name": "SHENZHOU-22", "group": "stations", "lat": -29.400579734150842, "lon": -76.02029268130144, "alt_km": 396.23932434554536, "timestamp": "2025-12-21T11:31:41.586638+00:00", "meta": {"OBJECT_NAME": "SHENZHOU-22", "OBJECT_ID": "2025-272A", "EPOCH": "2025-12-20T23:26:14.890272", "MEAN_MOTION": 15.59514827, "ECCENTRICITY": 0.00077445, "INCLINATION": 41.4685, "RA_OF_ASC_NODE": 326.6888, "ARG_OF_PERICENTER": 103.1948, "MEAN_ANOMALY": 256.9755, "EPHEMERIS_TYPE": 0, "CLASSIFICATION_TYPE": "U", "NORAD_CAT_ID": 66645, "ELEMENT_SET_NO": 999, "REV_AT_EPOCH": 26519, "BSTAR": 0.00017446348, "MEAN_MOTION_DOT": 0.00013949, "MEAN_MOTION_DDOT": 0}, "tle": {"line1": "1 66645U 25272A   25354.97656123  .00013949  00000+0  17446-3 0  9993", "line2": "2 66645  41.4685 326.6888 0007744 103.1948 256.9755 15.59514827265195"}}, "geometry": {"type": "Point", "coordinates": [-76.02029268130144, -29.400579734150842]}}, {"type": "Feature", "properties": {"norad_id": 66664, "name": "SOYUZ-MS 28", "group": "stations", "lat": -31.719913197219558, "lon": -51.48830697870184, "alt_km": 420.2575563384271, "timestamp": "2025-12-21T11:31:41.586648+00:00", "meta": {"OBJECT_NAME": "SOYUZ-MS 28", "OBJECT_ID": "2025-275A", "EPOCH": "2025-12-20T16:00:06.134688", "MEAN_MOTION": 15.49686708, "ECCENTRICITY": 0.0003164, "INCLINATION": 51.6321, "RA_OF_ASC_NODE": 103.2234, "ARG_OF_PERICENTER": 277.4707, "MEAN_ANOMALY": 82.5922, "EPHEMERIS_TYPE": 0, "CLASSIFICATION_TYPE": "U", "NORAD_CAT_ID": 66664, "ELEMENT_SET_NO": 999, "REV_AT_EPOCH": 367, "BSTAR": 0.00013711, "MEAN_MOTION_DOT": 7.293e-05, "MEAN_MOTION_DDOT": 0}, "tle": {"line1": "1 66664U 25275A   25354.66673767  .00007293  00000+0  13711-3 0  9992", "line2": "2 66664  51.6321 103.2234 0003164 277.4707  82.5922 15.49686708  3679"}}, "geometry": {"type": "Point", "coordinates": [-51.48830697870184, -31.719913197219558]}}, {"type": "Feature", "properties": {"norad_id": 66906, "name": "1998-067XS", "group": "stations", "lat": -47.99725642234087, "lon": 37.43241706809977, "alt_km": 416.9129653824448, "timestamp": "2025-12-21T11:31:41.586659+00:00", "meta": {"OBJECT_NAME": "1998-067XS", "OBJECT_ID": "1998-067XS", "EPOCH": "2025-12-20T11:05:35.991168", "MEAN_MOTION": 15.50962254, "ECCENTRICITY": 0.00030029, "INCLINATION": 51.6311, "RA_OF_ASC_NODE": 104.1082, "ARG_OF_PERICENTER": 237.5, "MEAN_ANOMALY": 122.5699, "EPHEMERIS_TYPE": 0, "CLASSIFICATION_TYPE": "U", "NORAD_CAT_ID": 66906, "ELEMENT_SET_NO": 999, "REV_AT_EPOCH": 281, "BSTAR": 0.00037246497, "MEAN_MOTION_DOT": 0.00021596, "MEAN_MOTION_DDOT": 0}, "tle": {"line1": "1 66906U 98067XS  25354.46222212  .00021596  00000+0  37246-3 0  9994", "line2": "2 66906  51.6311 104.1082 0003002 237.5000 122.5699 15.50962254  2818"}}, "geometry": {"type": "Point", "coordinates": [37.43241706809977, -47.99725642234087]}}, {"type": "Feature", "properties": {"norad_id": 66907, "name": "1998-067XT", "group": "stations", "lat": -14.767390689821916, "lon": 86.88661063344729, "alt_km": 411.0076624364674, "timestamp": "2025-12-21T11:31:41.586669+00:00", "meta": {"OBJECT_NAME": "1998-067XT", "OBJECT_ID": "1998-067XT", "EPOCH": "2025-12-19T11:42:50.767776", "MEAN_MOTION": 15.52255247, "ECCENTRICITY": 0.0003998, "INCLINATION": 51.6306, "RA_OF_ASC_NODE": 108.8528, "ARG_OF_PERICENTER": 265.7173, "MEAN_ANOMALY": 94.336, "EPHEMERIS_TYPE": 0, "CLASSIFICATION_TYPE": "U", "NORAD_CAT_ID": 66907, "ELEMENT_SET_NO": 999, "REV_AT_EPOCH": 266, "BSTAR": 0.00077339, "MEAN_MOTION_DOT": 0.00047666, "MEAN_MOTION_DDOT": 0}, "tle": {"line1": "1 66907U 98067XT  25353.48808759  .00047666  00000+0  77339-3 0  9995", "line2": "2 66907  51.6306 108.8528 0003998 265.7173  94.3360 15.52255247  2660"}}, "geometry": {"type": "Point", "coordinates": [86.88661063344729, -14.767390689821916]}}, {"type": "Feature", "properties": {"norad_id": 66908, "name": "1998-067XU", "group": "stations", "lat": -11.031185208183347, "lon": 90.05079633375453, "alt_km": 410.3299384708853, "timestamp": "2025-12-21T11:31:41.586680+00:00", "meta": {"OBJECT_NAME": "1998-067XU", "OBJECT_ID": "1998-067XU", "EPOCH": "2025-12-21T00:46:29.963136", "MEAN_MOTION": 15.52510982, "ECCENTRICITY": 0.0003904, "INCLINATION": 51.6311, "RA_OF_ASC_NODE": 101.1653, "ARG_OF_PERICENTER": 276.2494, "MEAN_ANOMALY": 83.8051, "EPHEMERIS_TYPE": 0, "CLASSIFICATION_TYPE": "U", "NORAD_CAT_ID": 66908, "ELEMENT_SET_NO": 999, "REV_AT_EPOCH": 290, "BSTAR": 0.00080289, "MEAN_MOTION_DOT": 0.00049977, "MEAN_MOTION_DDOT": 0}, "tle": {"line1": "1 66908U 98067XU  25355.03229124  .00049977  00000+0  80289-3 0  9997", "line2": "2 66908  51.6311 101.1653 0003904 276.2494  83.8051 15.52510982  2909"}}, "geometry": {"type": "Point", "coordinates": [90.05079633375453, -11.031185208183347]}}, {"type": "Feature", "properties": {"norad_id": 66909, "name": "SILVERSAT", "group": "stations", "lat": -6.11023553890717, "lon": 94.05751024753123, "alt_km": 409.43880432543574, "timestamp": "2025-12-21T11:31:41.586690+00:00", "meta": {"OBJECT_NAME": "SILVERSAT", "OBJECT_ID": "1998-067XV", "EPOCH": "2025-12-21T00:44:56.474880", "MEAN_MOTION": 15.52677939, "ECCENTRICITY": 0.0003815, "INCLINATION": 51.6312, "RA_OF_ASC_NODE": 101.1583, "ARG_OF_PERICENTER": 279.3746, "MEAN_ANOMALY": 80.6813, "EPHEMERIS_TYPE": 0, "CLASSIFICATION_TYPE": "U", "NORAD_CAT_ID": 66909, "ELEMENT_SET_NO": 999, "REV_AT_EPOCH": 290, "BSTAR": 0.00085685, "MEAN_MOTION_DOT": 0.00053716, "MEAN_MOTION_DDOT": 0}, "tle": {"line1": "1 66909U 98067XV  25355.03120920  .00053716  00000+0  85685-3 0  9993", "line2": "2 66909  51.6312 101.1583 0003815 279.3746  80.6813 15.52677939  2905"}}, "geometry": {"type": "Point", "coordinates": [94.05751024753123, -6.11023553890717]}}, {"type": "Feature", "properties": {"norad_id": 66910, "name": "1998-067XW", "group": "stations", "lat": 1.6880575376506104, "lon": 100.23943194213729, "alt_km": 410.1961514962413, "timestamp": "2025-12-21T11:31:41.586701+00:00", "meta": {"OBJECT_NAME": "1998-067XW", "OBJECT_ID": "1998-067XW", "EPOCH": "2025-12-21T00:42:22.362336", "MEAN_MOTION": 15.52668327, "ECCENTRICITY": 0.0004176, "INCLINATION": 51.6309, "RA_OF_ASC_NODE": 101.1459, "ARG_OF_PERICENTER": 252.7985, "MEAN_ANOMALY": 107.2548, "EPHEMERIS_TYPE": 0, "CLASSIFICATION_TYPE": "U", "NORAD_CAT_ID": 66910, "ELEMENT_SET_NO": 999, "REV_AT_EPOCH": 290, "BSTAR": 0.00074556, "MEAN_MOTION_DOT": 0.00046622, "MEAN_MOTION_DDOT": 0}, "tle": {"line1": "1 66910U 98067XW  25355.02942549  .00046622  00000+0  74556-3 0  9996", "line2": "2 66910  51.6309 101.1459 0004176 252.7985 107.2548 15.52668327  2908"}}, "geometry": {"type": "Point", "coordinates": [100.23943194213729, 1.6880575376506104]}}]}